#aV2023 12  7  0  0  0.00000000     288 DD+AD WGS84 FIT  NGA
## 2291 345600.00000000   300.00000000 60285 0.0000000000000
+   32     1  2  3  4  5  6  7  8  9 10 11 12 13 14 15 16 17
+         18 19 20 21 22 23 24 25 26 27 28 29 30 31 32  0  0
+          0  0  0  0  0  0  0  0  0  0  0  0  0  0  0  0  0
+          0  0  0  0  0  0  0  0  0  0  0  0  0  0  0  0  0
+          0  0  0  0  0  0  0  0  0  0  0  0  0  0  0  0  0
++         2  2  2  2  2  2  2  2  2  2  2  2  2  2  2  2  2
++         2  2  2  2  2  2  2  2  2  2  2  2  2  2  2  0  0
++         0  0  0  0  0  0  0  0  0  0  0  0  0  0  0  0  0
++         0  0  0  0  0  0  0  0  0  0  0  0  0  0  0  0  0
++         0  0  0  0  0  0  0  0  0  0  0  0  0  0  0  0  0
%c cc cc ccc ccc cccc cccc cccc cccc ccccc ccccc ccccc ccccc
%c cc cc ccc ccc cccc cccc cccc cccc ccccc ccccc ccccc ccccc
%f  0.0000000  0.000000000  0.00000000000  0.000000000000000
%f  0.0000000  0.000000000  0.00000000000  0.000000000000000
%i    0    0    0    0      0      0      0      0         0
%i    0    0    0    0      0      0      0      0         0
/*      NGA, ST. LOUIS,MO.                                  
/*   EPHEMERIS COMPUTED FROM 2 DAYS OF DATA                 
/*   EPOCHA v8 SMOOTHER                                     
/*   G2139 IERS2010 SATIGS SATAPC                           
*  2023 12  7  1  5  0.00000000
P  1  13200.443739 -14108.745803  17724.064755    163.652486                    
V  1  -1088.508733  23281.116679  19298.640815      0.004177                    
P  2  14696.620050  -7474.828066  21287.502877   -519.097481                    
V  2    653.621867  25897.075563   9064.025311      0.052526                    
P  3  23559.715104 -12055.879997  -1495.752291     36.275139                    
V  3   2501.175423   1288.222618  32220.514315      0.272305                    
P  4  16221.825332  -5478.253772 -20329.469964    232.684384                    
V  4  20060.961295  16235.124131  11498.850547      0.101824                    
P  5 -23904.116383   3896.397966 -11188.330846   -153.153319                    
V  5  11323.841875  -8313.291790 -27436.429519     -0.014437                    
P  6  -6975.814010 -21508.397624 -13782.824009    485.582505                    
V  6   3298.857267 -17369.476705  25400.327336     -0.111764                    
P  7   5389.306764 -25277.784031  -4410.823565     -5.396986                    
V  7   3001.062718   6569.572276 -31148.040098     -0.097423                    
P  8  21790.044922   1306.177385  15333.327715   -155.703028                    
V  8  15270.543775  12210.447715 -22206.912257     -0.018612                    
P  9   5454.600596 -14622.050042 -21575.073454     18.980383                    
V  9  22892.462247  14705.629974  -4253.094020      0.115984                    
P 10   3115.320966  14777.915674  22012.808032    -64.300073                    
V 10 -25042.210041  11267.649504  -4376.879242     -0.015148                    
P 11 -12564.691346 -11650.405059 -20283.452146   -490.487002                    
V 11   4433.716311 -25413.248700  11786.133923     -0.154466                    
P 12 -24503.801089  10124.188182   -907.284032   -454.761370                    
V 12  -1761.575999  -2292.519279  31849.703738     -0.039983                    
P 13 -21943.135879 -12214.067774   8770.756530    602.991096                    
V 13  -6817.440806  -9329.480426 -29158.180666      0.039357                    
P 14   1096.104082 -16658.265750  20643.999791    263.756635                    
V 14  24482.297935  -9522.840006  -9168.447037      0.105948                    
P 15 -21976.178992   1059.212994  14538.040576    104.383677                    
V 15 -16078.381103 -11006.647129 -22529.202189      0.037951                    
P 16  21850.438048   3385.483622 -15365.590354   -408.927845                    
V 16 -17079.698009   7897.898284 -22581.329625      0.070438                    
P 17  -7828.511413 -20068.708738  15880.123927    722.367840                    
V 17  16248.409299  10747.167827  22336.780722     -0.005116                    
P 18  -5005.352132  25762.904012  -3357.689427   -499.411275                    
V 18  -2056.591953  -4537.524002 -31794.435650     -0.102840                    
P 19 -15547.016188 -20340.534732   7528.344825    408.956458                    
V 19   8722.965351   4777.096145  29813.013402      0.052356                    
P 20 -16878.830271  -5326.470406 -19696.228747    397.937925                    
V 20  19874.242647 -15570.339454 -12963.807192     -0.019141                    
P 21  15312.995707  -2697.741419  21963.006888    142.271117                    
V 21    747.483905  26782.939687   3765.583695     -0.010788                    
P 22  -6174.721386 -14100.641204  22079.559341     70.635081                    
V 22  25302.608483  -9382.820099   1390.536925     -0.068356                    
P 23 -10338.278837  17807.369586  16685.968837    111.522358                    
V 23 -19658.971755   8083.851397 -21006.786381      0.067530                    
P 24 -14775.361861   8117.066342  20030.875200   -387.815099                    
V 24  -1581.319244 -26529.333590   9814.325913     -0.083239                    
P 25 -16928.135947  17122.349180 -11227.116066    480.454477                    
V 25 -13697.830588   3571.333937  27157.228895      0.015308                    
P 26  15048.717121   8788.740033 -20270.339276    211.260274                    
V 26 -21694.094798  13340.579420 -10025.864610     -0.029792                    
P 27  23188.329026  12776.439426   3830.136400    -79.709793                    
V 27   2897.939805   4826.564481 -31077.397736     -0.049123                    
P 28   6910.828050  22883.086655 -11604.518353    -63.567686                    
V 28  -3141.522101  14552.635514  26877.594614     -0.095963                    
P 29  -7167.880824  13334.197294 -21860.224565   -609.947034                    
V 29 -21570.550956 -17251.860498  -3555.434519      0.002191                    
P 30  -1659.910562 -25829.503132   5419.189928   -460.324758                    
V 30   4322.165043  -6442.939779 -30318.684677      0.042403                    
P 31  11087.713614  16089.113507 -18004.247241   -226.390999                    
V 31  -4318.359824  22291.543765  17867.571896     -0.003289                    
P 32  12627.971457  19660.559340  13006.745382   -593.738999                    
V 32 -14489.650840  -7401.014144  25416.886937     -0.039009                    
EOF
